#aV2015  5 14  0  0  0.00000000     288 DD+AD WGS84 FIT  NGA
## 1844 345600.00000000   300.00000000 57156 0.0000000000000
+   31     1  2  3  4  5  6  7  9 10 11 12 13 14 15 16 17 18
+         19 20 21 22 23 24 25 26 27 28 29 30 31 32  0  0  0
+          0  0  0  0  0  0  0  0  0  0  0  0  0  0  0  0  0
+          0  0  0  0  0  0  0  0  0  0  0  0  0  0  0  0  0
+          0  0  0  0  0  0  0  0  0  0  0  0  0  0  0  0  0
++         2  2  2  2  2  2  2  2  2  2  2  2  2  2  2  2  2
++         2  2  2  2  2  2  2  2  2  2  2  2  2  2  0  0  0
++         0  0  0  0  0  0  0  0  0  0  0  0  0  0  0  0  0
++         0  0  0  0  0  0  0  0  0  0  0  0  0  0  0  0  0
++         0  0  0  0  0  0  0  0  0  0  0  0  0  0  0  0  0
%c cc cc ccc ccc cccc cccc cccc cccc ccccc ccccc ccccc ccccc
%c cc cc ccc ccc cccc cccc cccc cccc ccccc ccccc ccccc ccccc
%f  0.0000000  0.000000000  0.00000000000  0.000000000000000
%f  0.0000000  0.000000000  0.00000000000  0.000000000000000
%i    0    0    0    0      0      0      0      0         0
%i    0    0    0    0      0      0      0      0         0
/*      NGA, ST. LOUIS,MO.                                  
/*   EPHEMERIS COMPUTED FROM  1 DAYS OF DATA                
/*   EPOCHA SMOOTHER                                       
/* CCCCCCCCCCCCCCCCCCCCCCCCCCCCCCCCCCCCCCCCCCCCCCCCCCCCCCCCC
*  2015  5 14 19 50  0.00000000
P  1   9066.209433 -20182.786517 -14603.848488     -5.583069                    
V  1  15878.579511  -9800.730752  23665.742721      0.004734                    
P  2 -21455.863328  14635.922818  -3866.672632    565.837546                    
V  2   1637.075753  -6454.301173 -31067.497598      0.023218                    
P  3   -726.180180 -16127.931399 -21070.183364    326.916287                    
V  3  25240.797765   9031.441512  -7815.964068      0.100853                    
P  4  16151.946047 -19871.838230  -6823.886789    -14.743270                    
V  4   8642.363343  -2643.055005  29813.911130     -0.014985                    
P  5 -18926.517493   6329.310491  17563.991354   -241.624625                    
V  5 -20270.275369  -9645.755528 -18132.080215      0.046458                    
P  6 -20609.560775   1687.025124 -16663.373306    160.516178                    
V  6  15340.015270 -14691.261289 -20464.402128      0.092549                    
P  7  -4859.408397 -14846.449911  21530.963926    462.117895                    
V  7  21965.239410 -15938.439306  -6423.120850      0.025648                    
P  9  -7254.198729 -25122.102945   4588.715625   -155.845455                    
V  9   1916.168710  -6219.440667 -30987.569958     -0.063721                    
P 10 -25090.238645  -9313.679533    864.367502   -174.867829                    
V 10   -296.594841  -3428.665308 -31022.606884     -0.015563                    
P 11   8843.376461 -24270.961771  -6411.284756   -578.201061                    
V 11   8005.479852  -4023.072563  28775.540673     -0.026321                    
P 12  -2674.718378  14679.029529 -22090.909724    292.939153                    
V 12 -25386.962505 -11097.754466  -4104.143093      0.031768                    
P 13 -12605.576306  12940.242430  19368.565261   -114.422461                    
V 13  -2138.500085 -24758.474933  14917.107226     -0.033470                    
P 14  14018.801290  11980.229414 -18931.904992     63.537894                    
V 14    617.211568  24503.583670  15613.445809     -0.028060                    
P 15  -5211.786840  22390.026651  12934.357047   -249.206873                    
V 15  -6444.077102 -15790.926949  24883.522195     -0.021671                    
P 16  19378.988046  -3886.268556  17848.793586   -129.165654                    
V 16  20104.109254  10381.374491 -19120.636416      0.037477                    
P 17 -14063.394207 -12534.680744 -18513.990728   -171.164469                    
V 17  -1352.178276 -24009.829410  16813.642534     -0.018780                    
P 18  18962.417145  15672.428673  10883.727304    401.449399                    
V 18 -13317.061074  -1637.823188  26491.948053      0.029301                    
P 19   8884.318595 -19912.783571  14642.267326   -510.411984                    
V 19   3371.422183  18928.427401  23851.411306     -0.011330                    
P 20 -18143.600968   8171.295562  17493.217770    319.911292                    
V 20 -20961.018636  -8727.509486 -17394.021994      0.036840                    
P 21   8584.909757  13766.397630  21711.908954   -446.014446                    
V 21 -20344.689267  16316.539452  -2746.523465     -0.035646                    
P 22  25010.293583   9224.146207     42.537517    350.275565                    
V 22  -1124.031436   3690.310178  30781.255673      0.041488                    
P 23    -27.336278 -25759.389549  -5285.407685   -108.333395                    
V 23   4489.849041   6396.722391 -30799.572021     -0.024517                    
P 24 -11353.137674  20638.258080 -12165.653580    -48.256937                    
V 24 -13576.258522   7848.103534  26205.366551     -0.006571                    
P 25  11220.632280  16887.046094 -17343.362748    -29.184967                    
V 25 -20711.790301  -6680.880323 -19854.236905     -0.038091                    
P 26  24679.441194   2388.822266   9518.531368     29.384016                    
V 26  10370.295789   6733.993406 -28545.339835      0.021527                    
P 27  12933.482762 -10132.423416  20828.748498     71.937051                    
V 27   4961.843872  26034.664517   9688.343839      0.026990                    
P 28 -22502.374748 -13721.542485   4254.456619    439.816101                    
V 28   4905.246569    379.789036  31720.445639      0.025230                    
P 29   4448.720748  26077.261796   2703.899991    610.480532                    
V 29  -2011.081215   3611.168041 -31752.186853      0.023411                    
P 30 -14814.638322  -7564.894489  20708.006710    -59.550777                    
V 30  21207.006896 -15618.334701   9398.117449      0.052189                    
P 31  22100.045772  -4608.929077 -14134.977973    315.915983                    
V 31 -13424.780339  12108.263187 -24381.888464     -0.010646                    
P 32  13936.198191  -9536.100946 -20392.944565   -151.272163                    
V 32  22847.768887  12558.582704  10285.311182      0.096282                    
EOF
